[Satellite]
VERSION=1.1
NAME=GORIZONT 10 [-]
NICKNAME=GORIZONT 10 [-]
TLE1=1 15144U 84078A   17185.24819486 -.00000258  00000-0  00000-0 0  9992
TLE2=2 15144  14.1294 342.7201 0004778 268.5168  87.2225  1.00286110121783
